,H,diameter,albedo,rot_per,diameter_sigma,epoch,e,a,q,i,om,w,ma,ad,n,tp,per,moid,moid_jup,t_jup,sigma_e,sigma_a,sigma_q,sigma_i,sigma_om,sigma_w,sigma_ma,sigma_ad,sigma_n,sigma_tp,sigma_per,rms,neo_flag,pha_flag,class_var
1806,12.4,9.135,0.309,308.6,0.092,2458600.5,0.1785542704255543,2.225963889629882,1.828508531323389,3.491930789654032,236.345988517555,140.4667018554512,101.9152764686547,2.623419247936374,0.2967747185099098,2458257.090436745,1213.041332521655,0.831088,2.84298,3.622,3.7945e-08,5.9712e-09,8.5491e-08,3.533e-06,7.2955e-05,7.3834e-05,1.3656e-05,7.0374e-09,1.1942e-09,4.5197e-05,4.881e-06,0.48718,0,0,S
1829,12.45,7.71,0.274,2.56999,0.669,2458600.5,0.05631154857382396,2.188423663372179,2.06519013795209,3.954040060535229,147.4541402237982,334.9593608892473,342.9561982108156,2.311657188792267,0.3044436854602247,2458656.483430116,1182.484699775564,1.08174,2.7056,3.67,4.3714e-08,6.5596e-09,9.6238e-08,4.546e-06,5.645e-05,6.518e-05,3.3622e-05,6.929e-09,1.3688e-09,0.00011051,5.3166e-06,0.40602,0,0,S
1830,12.5,8.083,0.296,3.228,0.468,2458600.5,0.1279411557991556,2.23920836628644,1.952721459828614,5.633464546511891,72.60432363264663,183.462089164397,36.79012590899783,2.525695272744266,0.2941455697924053,2458475.425446149,1223.883807782901,0.937573,2.512,3.619,3.856e-08,6.9557e-09,8.8198e-08,4.1968e-06,3.8273e-05,4.1261e-05,1.6878e-05,7.8456e-09,1.3706e-09,5.7157e-05,5.7027e-06,0.45166,0,0,S
1835,12.1,22.24,0.042,8.8015,0.304,2458600.5,0.191282065114008,2.785335292847504,2.252550605996703,7.021523334784761,272.735086406776,12.54777907351268,118.2087206032345,3.318119979698305,0.2120253802327527,2458042.9784406777,1697.909937031155,1.2361,1.84606,3.294,4.0722e-08,1.3029e-08,1.1484e-07,4.5046e-06,3.7051e-05,3.9004e-05,1.4858e-05,1.5522e-08,1.4877e-09,6.8466e-05,1.1914e-05,0.46595,0,0,C
1846,11.1,17.427,0.232,5.617,0.335,2458600.5,0.02092544603612062,2.609974439170248,2.555359559887737,11.14469330249896,106.8663714441034,137.5323648407354,63.68782162126766,2.664589318452759,0.2337489629528806,2458328.0375222345,1540.113784686905,1.54655,2.38987,3.383,3.3129e-08,9.0145e-09,8.7868e-08,3.4417e-06,1.773e-05,7.9538e-05,7.6914e-05,9.2031e-09,1.211e-09,0.00032923,7.979e-06,0.41369,0,0,X
1847,11.0,17.03,0.242,3.637,0.114,2458600.5,0.04599900124082836,2.869985724750127,2.737969247836186,1.440932199506753,331.6474447692393,316.652084021211,259.9330682287514,3.002002201664068,0.2027143387403333,2459094.1351932134,1775.898055544762,1.72121,2.07181,3.296,3.8211e-08,1.2896e-08,1.0949e-07,4.902e-06,0.00015405,0.00016211,5.1329e-05,1.3489e-08,1.3663e-09,0.00025356,1.197e-05,0.48758,0,0,S
1856,12.3,7.986,0.333,3.1177,0.201,2458600.5,0.1350648792509953,2.243571238839578,1.940543560374704,4.401006824853878,236.0560264535112,174.0455974819158,15.01987398756651,2.546598917304451,0.2932879891286466,2458549.2879676484,1227.462471509841,0.950601,2.79314,3.617,3.871e-08,5.5439e-09,8.7451e-08,4.2195e-06,4.3601e-05,4.542e-05,1.2215e-05,6.2926e-09,1.0871e-09,4.1622e-05,4.5496e-06,0.47746,0,0,S
1857,12.0,10.769,0.383,5.413,0.189,2458600.5,0.07807813357321207,2.6980464624516,2.487388030369572,1.66139717657652,271.9051365139703,17.78568388687645,231.5541058054116,2.908704894533629,0.2223975186862954,2459178.050932013,1618.723096042276,1.47048,2.20551,3.364,3.3883e-08,1.1082e-08,9.1523e-08,3.7816e-06,0.00016391,0.00016698,3.2921e-05,1.1947e-08,1.3702e-09,0.00014851,9.9731e-06,0.47573,0,0,L
1859,11.6,16.8,0.152,3.255,0.359,2458600.5,0.2010366024461793,2.567836715097749,2.05160754625794,9.918296342723616,132.8624567147878,162.0628183280153,94.89744293698936,3.084065883937558,0.2395261686071846,2458204.3117943904,1502.967304546956,1.0375,2.15283,3.382,3.1316e-08,9.2059e-09,7.9348e-08,4.12e-06,2.6073e-05,2.8957e-05,1.3595e-05,1.1057e-08,1.2881e-09,5.6398e-05,8.0824e-06,0.44748,0,0,X
1881,11.4,17.766,0.124,25.0,0.241,2458600.5,0.0920132355569172,3.006737283700009,2.730077657757155,9.485826121879429,201.2437680228812,125.9052142821932,11.49196164495316,3.283396909642864,0.1890431083327337,2458539.7098355433,1904.327553514228,1.73206,2.05963,3.224,3.4749e-08,1.4367e-08,1.0426e-07,4.4135e-06,2.257e-05,3.2998e-05,2.5971e-05,1.5689e-08,1.355e-09,0.00013722,1.3649e-05,0.50636,0,0,K
1887,11.7,11.633,0.274,11.053,0.137,2458600.5,0.1669915337894531,2.548057676662511,2.122553617052648,5.859762575135712,244.8550768255475,233.08384938,96.18920979655444,2.973561736272374,0.2423205201193345,2458203.549672602,1485.635635903688,1.14512,2.15778,3.415,5.0722e-08,9.2576e-09,1.3101e-07,4.0392e-06,4.8378e-05,4.9463e-05,1.2543e-05,1.0804e-08,1.3206e-09,5.0604e-05,8.0964e-06,0.46196,0,0,S
1903,11.1,13.503,0.581,5.394,0.211,2458600.5,0.07245597206296898,2.743750160056182,2.544949075111384,12.82481815142076,106.3634649510144,262.000577307979,348.251632721848,2.942551245000979,0.2168638829311428,2458654.6739229206,1660.02745655119,1.57964,2.44345,3.309,4.316e-08,1.282e-08,1.2107e-07,4.2665e-06,2.1268e-05,3.7335e-05,3.2528e-05,1.3749e-08,1.5199e-09,0.0001501,1.1634e-05,0.46331,0,0,R
1928,12.6,7.772,0.393,2.9887,0.147,2458600.5,0.07444864801842582,2.362426843971522,2.186547359395405,7.779971343815309,65.42717157694908,71.25863638880985,29.36869186794814,2.538306328547638,0.2714354212063627,2458492.302286756,1326.282319381982,1.21562,2.49841,3.534,3.4162e-08,8.6997e-09,8.1324e-08,4.6026e-06,3.0554e-05,4.5515e-05,3.471e-05,9.3474e-09,1.4994e-09,0.00012769,7.3261e-06,0.42608,0,0,V
1929,11.0,34.437,0.067,13.056,0.168,2458600.5,0.1415736605806663,2.899017614854754,2.488593079031934,14.05547751989308,318.52200539661,341.5250635330435,94.4032304752512,3.309442150677574,0.199676884827481,2458127.720035725,1802.912742308839,1.4766,1.97721,3.228,4.5773e-08,1.2663e-08,1.3135e-07,5.663e-06,1.6523e-05,2.4306e-05,2.0239e-05,1.4456e-08,1.3083e-09,0.00010018,1.1813e-05,0.4891,0,0,C
1935,11.8,31.037,0.028,19.651,0.137,2458600.5,0.1360311092138056,2.677400644508388,2.313190865026154,10.25625756488009,265.1617802556388,255.3884657347868,66.27438694787918,3.041610423990623,0.2249748798261703,2458305.9142800337,1600.178652292908,1.3483,2.08727,3.342,4.6627e-08,1.133e-08,1.2659e-07,4.1515e-06,2.6162e-05,2.9885e-05,1.51e-05,1.2871e-08,1.428e-09,6.6812e-05,1.0157e-05,0.45156,0,0,C
1950,14.2,5.57,0.0895,5.3016,0.5,2458600.5,0.06152745044845984,1.390451797849344,1.304900843756196,39.09198259109784,130.7430844859425,140.5378287593905,221.9822532114506,1.476002751942491,0.6011324423717098,2458830.0962371356,598.8696909780061,0.306407,3.71364,4.543,5.278e-08,2.3229e-09,7.3588e-08,8.4071e-06,6.0717e-06,4.6284e-05,4.7139e-05,2.4658e-09,1.5064e-09,7.8636e-05,1.5007e-06,0.42702,0,0,A
1967,11.7,13.154,0.178,5.2038,0.277,2458600.5,0.1120798270000829,2.74053366375971,2.433375124837618,4.595220305844279,71.49984386272254,164.8464744292368,4.747951995365533,3.047692202681802,0.2172457865640311,2458578.6447913423,1657.10923877409,1.42179,1.94972,3.336,3.6778e-08,1.1645e-08,1.0278e-07,3.9771e-06,5.5499e-05,5.9302e-05,2.238e-05,1.295e-08,1.3847e-09,0.000103,1.0562e-05,0.46862,0,0,S
1976,11.6,17.211,0.15,7.461,0.117,2458600.5,0.07355662376436631,2.780010083455581,2.575521927685694,7.766144489195115,332.2432187708982,310.548149866823,248.4145118011509,2.984498239225468,0.2126348852549625,2459125.2750766063,1693.042981015732,1.56672,2.18187,3.316,3.6063e-08,1.211e-08,1.0015e-07,4.2886e-06,3.0714e-05,4.3985e-05,3.1209e-05,1.3e-08,1.3894e-09,0.00014656,1.1062e-05,0.46086,0,0,S
1988,12.5,9.399,0.175,131.3,0.122,2458600.5,0.0766259480420366,2.351490175337248,2.171305011340496,7.764454694397121,25.30451664170442,88.11794821300273,330.8397576528137,2.531675339333999,0.2733312711152407,2458707.1846183687,1317.083107729077,1.20445,2.53723,3.541,3.8919e-08,7.64e-09,9.3415e-08,4.1712e-06,2.9713e-05,4.162e-05,2.7885e-05,8.2255e-09,1.3321e-09,0.00010198,6.4189e-06,0.42693,0,0,C
1997,12.3,14.242,0.126,6.13,0.17,2458600.5,0.06370178441677406,2.418913765566989,2.264824642350073,7.624897495818919,351.7562404344205,246.6092299769615,132.407348025311,2.573002888783904,0.2619832315758944,2458095.0960959834,1374.133748310952,1.26648,2.43937,3.5,3.2154e-08,7.8579e-09,7.8744e-08,4.5547e-06,2.6733e-05,4.7179e-05,4.0294e-05,8.3585e-09,1.2766e-09,0.00015331,6.6959e-06,0.4581,0,0,X
2000,12.85,3.975,0.81,5.487,0.154,2458600.5,0.09871234896787104,1.933539290333958,1.742675085163423,22.68111359989042,357.0752512221658,217.8630086512655,10.44038450801479,2.124403495504493,0.366584899670545,2458572.019872975,982.0371769910246,0.767434,2.87424,3.811,5.1663e-08,5.9323e-09,1.0101e-07,5.7246e-06,9.3613e-06,3.1964e-05,3.4748e-05,6.5179e-09,1.6871e-09,9.4727e-05,4.5195e-06,0.38985,0,0,X
2018,12.3,7.865,0.496,2.729,0.064,2458600.5,0.1652295107962825,2.241032530150419,1.87074782151511,4.04431446352989,252.1917717334539,24.79030343975055,38.2163988192242,2.611317238785728,0.2937864983549874,2458470.41778372,1225.379661814838,0.854763,2.50139,3.613,3.9732e-08,7.6157e-09,9.1334e-08,4.4669e-06,5.5998e-05,5.7401e-05,1.3587e-05,8.874e-09,1.4976e-09,4.6078e-05,6.2463e-06,0.49672,0,0,S
2021,11.6,12.634,0.175,14.14,0.341,2458600.5,0.1177781472053105,2.707462863818956,2.388582904091175,5.655157903565318,2.483518020366037,37.15467932283884,194.5485448987145,3.026342823546736,0.2212382992524211,2459348.3427363634,1627.204698356767,1.39817,2.39367,3.348,4.5143e-08,9.8061e-09,1.2376e-07,4.6831e-06,3.8733e-05,4.3377e-05,1.8842e-05,1.0961e-08,1.2019e-09,8.7135e-05,8.8403e-06,0.4375,0,0,S
2028,13.0,6.893,0.257,3.756,0.164,2458600.5,0.127814088871702,2.35094874581329,2.050464373883094,5.588442827298448,278.0023041857008,67.0132441346758,285.1213099888604,2.651433117743487,0.2734256998903489,2458874.353884405,1316.628247250971,1.04939,2.72436,3.54,4.1064e-08,9.4697e-09,9.6593e-08,3.643e-06,4.6241e-05,4.8459e-05,1.6234e-05,1.068e-08,1.652e-09,5.9968e-05,7.9551e-06,0.45625,0,0,S
